{
  "type": "FeatureCollection",
  "features": [
    {
      "type": "Feature",
      "properties": {
        "norad_id": 66568,
        "name": "STARLINK-35803",
        "group": "last-30-days",
        "lat": 22.41971966494245,
        "lon": -113.41643047284795,
        "alt_km": 411.21437533643257,
        "timestamp": "2025-12-17T13:48:36.278908+00:00",
        "meta_object_name": "STARLINK-35803",
        "meta_object_id": "2025-268M",
        "meta_epoch": "2025-12-16T13:59:50.614080",
        "meta_mean_motion": 15.50670035,
        "meta_eccentricity": 0.00019658,
        "meta_inclination": 43.0008,
        "meta_ra_of_asc_node": 98.6687,
        "meta_arg_of_pericenter": 257.8965,
        "meta_mean_anomaly": 102.1675,
        "meta_ephemeris_type": 0,
        "meta_classification_type": "U",
        "meta_norad_cat_id": 66568,
        "meta_element_set_no": 999,
        "meta_rev_at_epoch": 522,
        "meta_bstar": 0.0018595196,
        "meta_mean_motion_dot": 0.00110663,
        "meta_mean_motion_ddot": 0,
        "tle_line1": "1 66568U 25268M   25350.58322470  .00110663  00000+0  18595-2 0  9996",
        "tle_line2": "2 66568  43.0008  98.6687 0001965 257.8965 102.1675 15.50670035  5228"
      },
      "geometry": {
        "type": "Point",
        "coordinates": [
          -113.41643047284795,
          22.41971966494245
        ]
      }
    },
    {
      "type": "Feature",
      "properties": {
        "norad_id": 66569,
        "name": "STARLINK-35835",
        "group": "last-30-days",
        "lat": 21.021400242741205,
        "lon": -111.50035951831018,
        "alt_km": 411.41761765084357,
        "timestamp": "2025-12-17T13:48:36.278918+00:00",
        "meta_object_name": "STARLINK-35835",
        "meta_object_id": "2025-268N",
        "meta_epoch": "2025-12-15T17:53:30.134688",
        "meta_mean_motion": 15.50581218,
        "meta_eccentricity": 0.00013774,
        "meta_inclination": 43.0003,
        "meta_ra_of_asc_node": 103.5637,
        "meta_arg_of_pericenter": 270.128,
        "meta_mean_anomaly": 89.9422,
        "meta_ephemeris_type": 0,
        "meta_classification_type": "U",
        "meta_norad_cat_id": 66569,
        "meta_element_set_no": 999,
        "meta_rev_at_epoch": 509,
        "meta_bstar": 0.0014471406,
        "meta_mean_motion_dot": 0.00085494,
        "meta_mean_motion_ddot": 0,
        "tle_line1": "1 66569U 25268N   25349.74548767  .00085494  00000+0  14471-2 0  9994",
        "tle_line2": "2 66569  43.0003 103.5637 0001377 270.1280  89.9422 15.50581218  5091"
      },
      "geometry": {
        "type": "Point",
        "coordinates": [
          -111.50035951831018,
          21.021400242741205
        ]
      }
    },
    {
      "type": "Feature",
      "properties": {
        "norad_id": 66570,
        "name": "STARLINK-35834",
        "group": "last-30-days",
        "lat": 20.504670081338578,
        "lon": -110.80511060485723,
        "alt_km": 412.27195749818657,
        "timestamp": "2025-12-17T13:48:36.278928+00:00",
        "meta_object_name": "STARLINK-35834",
        "meta_object_id": "2025-268P",
        "meta_epoch": "2025-12-17T00:00:02.999808",
        "meta_mean_motion": 15.50542009,
        "meta_eccentricity": 0.0001628,
        "meta_inclination": 43.0008,
        "meta_ra_of_asc_node": 96.2217,
        "meta_arg_of_pericenter": 261.3551,
        "meta_mean_anomaly": 272.012,
        "meta_ephemeris_type": 0,
        "meta_classification_type": "U",
        "meta_norad_cat_id": 66570,
        "meta_element_set_no": 999,
        "meta_rev_at_epoch": 535,
        "meta_bstar": 0.00057210059,
        "meta_mean_motion_dot": 0.00033319,
        "meta_mean_motion_ddot": 0,
        "tle_line1": "1 66570U 25268P   25351.00003472  .00033319  00000+0  57210-3 0  9995",
        "tle_line2": "2 66570  43.0008  96.2217 0001628 261.3551 272.0120 15.50542009  5356"
      },
      "geometry": {
        "type": "Point",
        "coordinates": [
          -110.80511060485723,
          20.504670081338578
        ]
      }
    },
    {
      "type": "Feature",
      "properties": {
        "norad_id": 66571,
        "name": "STARLINK-35836",
        "group": "last-30-days",
        "lat": 18.702994915058614,
        "lon": -108.46198596383847,
        "alt_km": 412.29584190252535,
        "timestamp": "2025-12-17T13:48:36.278940+00:00",
        "meta_object_name": "STARLINK-35836",
        "meta_object_id": "2025-268Q",
        "meta_epoch": "2025-12-15T16:19:45.764256",
        "meta_mean_motion": 15.50585283,
        "meta_eccentricity": 0.00014873,
        "meta_inclination": 42.9954,
        "meta_ra_of_asc_node": 103.9347,
        "meta_arg_of_pericenter": 312.1791,
        "meta_mean_anomaly": 47.8943,
        "meta_ephemeris_type": 0,
        "meta_classification_type": "U",
        "meta_norad_cat_id": 66571,
        "meta_element_set_no": 999,
        "meta_rev_at_epoch": 508,
        "meta_bstar": 0.0011259195,
        "meta_mean_motion_dot": 0.00066287,
        "meta_mean_motion_ddot": 0,
        "tle_line1": "1 66571U 25268Q   25349.68039079  .00066287  00000+0  11259-2 0  9991",
        "tle_line2": "2 66571  42.9954 103.9347 0001487 312.1791  47.8943 15.50585283  5081"
      },
      "geometry": {
        "type": "Point",
        "coordinates": [
          -108.46198596383847,
          18.702994915058614
        ]
      }
    },
    {
      "type": "Feature",
      "properties": {
        "norad_id": 66572,
        "name": "STARLINK-35870",
        "group": "last-30-days",
        "lat": 16.226938514991513,
        "lon": -105.35632088678467,
        "alt_km": 407.8859541299407,
        "timestamp": "2025-12-17T13:48:36.278953+00:00",
        "meta_object_name": "STARLINK-35870",
        "meta_object_id": "2025-268R",
        "meta_epoch": "2025-12-17T06:57:42.835104",
        "meta_mean_motion": 15.51448552,
        "meta_eccentricity": 0.00028728,
        "meta_inclination": 43.0014,
        "meta_ra_of_asc_node": 94.5137,
        "meta_arg_of_pericenter": 179.5704,
        "meta_mean_anomaly": 180.5159,
        "meta_ephemeris_type": 0,
        "meta_classification_type": "U",
        "meta_norad_cat_id": 66572,
        "meta_element_set_no": 999,
        "meta_rev_at_epoch": 533,
        "meta_bstar": 0.0030084014,
        "meta_mean_motion_dot": 0.00186105,
        "meta_mean_motion_ddot": 0,
        "tle_line1": "1 66572U 25268R   25351.29007911  .00186105  00000+0  30084-2 0  9991",
        "tle_line2": "2 66572  43.0014  94.5137 0002872 179.5704 180.5159 15.51448552  5331"
      },
      "geometry": {
        "type": "Point",
        "coordinates": [
          -105.35632088678467,
          16.226938514991513
        ]
      }
    },
    {
      "type": "Feature",
      "properties": {
        "norad_id": 66573,
        "name": "STARLINK-35650",
        "group": "last-30-days",
        "lat": 13.856573668005675,
        "lon": -102.52348291475407,
        "alt_km": 411.67658427580227,
        "timestamp": "2025-12-17T13:48:36.278962+00:00",
        "meta_object_name": "STARLINK-35650",
        "meta_object_id": "2025-268S",
        "meta_epoch": "2025-12-16T15:29:39.161760",
        "meta_mean_motion": 15.51253867,
        "meta_eccentricity": 0.00025406,
        "meta_inclination": 42.9964,
        "meta_ra_of_asc_node": 98.2753,
        "meta_arg_of_pericenter": 312.0819,
        "meta_mean_anomaly": 47.9825,
        "meta_ephemeris_type": 0,
        "meta_classification_type": "U",
        "meta_norad_cat_id": 66573,
        "meta_element_set_no": 999,
        "meta_rev_at_epoch": 523,
        "meta_bstar": 0.002315295,
        "meta_mean_motion_dot": 0.00141337,
        "meta_mean_motion_ddot": 0,
        "tle_line1": "1 66573U 25268S   25350.64559215  .00141337  00000+0  23153-2 0  9996",
        "tle_line2": "2 66573  42.9964  98.2753 0002540 312.0819  47.9825 15.51253867  5230"
      },
      "geometry": {
        "type": "Point",
        "coordinates": [
          -102.52348291475407,
          13.856573668005675
        ]
      }
    },
    {
      "type": "Feature",
      "properties": {
        "norad_id": 66574,
        "name": "STARLINK-35812",
        "group": "last-30-days",
        "lat": 15.140281665980318,
        "lon": -104.04637952708335,
        "alt_km": 412.843710899956,
        "timestamp": "2025-12-17T13:48:36.278972+00:00",
        "meta_object_name": "STARLINK-35812",
        "meta_object_id": "2025-268T",
        "meta_epoch": "2025-12-16T15:29:38.663232",
        "meta_mean_motion": 15.50718771,
        "meta_eccentricity": 0.00015507,
        "meta_inclination": 43.0004,
        "meta_ra_of_asc_node": 98.2749,
        "meta_arg_of_pericenter": 319.105,
        "meta_mean_anomaly": 40.9693,
        "meta_ephemeris_type": 0,
        "meta_classification_type": "U",
        "meta_norad_cat_id": 66574,
        "meta_element_set_no": 999,
        "meta_rev_at_epoch": 523,
        "meta_bstar": 0.001231325,
        "meta_mean_motion_dot": 0.00072934,
        "meta_mean_motion_ddot": 0,
        "tle_line1": "1 66574U 25268T   25350.64558638  .00072934  00000+0  12313-2 0  9997",
        "tle_line2": "2 66574  43.0004  98.2749 0001550 319.1050  40.9693 15.50718771  5233"
      },
      "geometry": {
        "type": "Point",
        "coordinates": [
          -104.04637952708335,
          15.140281665980318
        ]
      }
    }
  ]
}